{
"type": "FeatureCollection",
"name": "oak_fire",
"crs": { "type": "name", "properties": { "name": "urn:ogc:def:crs:EPSG::3857" } },
"features": [
{ "type": "Feature", "properties": { "OBJECTID": 1364, "YEAR_": 2022, "STATE": "CA", "AGENCY": "CDF", "UNIT_ID": "MMU", "FIRE_NAME": "OAK", "INC_NUM": "00016149", "IRWINID": "{09A76C17-511F-40B6-A006-8531DF0C33AC}", "ALARM_DATE": "2022-07-22T00:00:00Z", "CONT_DATE": "2022-08-10T00:00:00Z", "CAUSE": 14, "C_METHOD": 3, "OBJECTIVE": 1, "GIS_ACRES": 18957.501953125, "COMMENTS": null, "COMPLEX_NAME": null, "COMPLEX_ID": null, "FIRE_NUM": null, "GlobalID": "{B56A60BD-CB6B-449D-AFB1-4BC624B923AA}", "DECADES": "2020-2025" }, "geometry": { "type": "MultiPolygon", "coordinates": [ [ [ [ -13337224.0, 4519045.000100001692772 ], [ -13337239.0, 4519084.0 ], [ -13337338.0, 4519145.0 ], [ -13337510.0, 4519183.999899998307228 ], [ -13337637.0, 4519082.0 ], [ -13337618.0, 4519123.999899998307228 ], [ -13337609.0001, 4519240.999899998307228 ], [ -13337631.0, 4519324.0 ], [ -13337636.0, 4519483.0 ], [ -13337693.0001, 4519645.0 ], [ -13337610.0, 4519663.999899998307228 ], [ -13337610.0, 4519700.0 ], [ -13337915.0, 4519902.0 ], [ -13337939.0, 4519828.0 ], [ -13338030.9999, 4519770.0 ], [ -13337988.0, 4519670.0 ], [ -13337995.0001, 4519657.000100001692772 ], [ -13338010.0, 4519691.0 ], [ -13338058.0, 4519706.0 ], [ -13338103.0, 4519688.000100001692772 ], [ -13338135.0001, 4519696.0 ], [ -13338140.0, 4519757.0 ], [ -13338165.0, 4519768.0 ], [ -13338248.0, 4519737.0 ], [ -13338292.0, 4519691.0 ], [ -13338330.0, 4519578.0 ], [ -13338365.0, 4519596.0 ], [ -13338369.0, 4519577.0 ], [ -13338499.0, 4519536.0 ], [ -13338511.0, 4519547.000100001692772 ], [ -13338482.0, 4519562.0 ], [ -13338458.0001, 4519621.000100001692772 ], [ -13338481.0, 4519618.999899998307228 ], [ -13338526.0, 4519576.0 ], [ -13338560.0, 4519604.0 ], [ -13338581.0001, 4519595.000100001692772 ], [ -13338592.0, 4519618.0 ], [ -13338568.0, 4519632.0 ], [ -13338588.0, 4519680.0 ], [ -13338654.0, 4519681.999899998307228 ], [ -13338729.0, 4519621.000100001692772 ], [ -13338741.0, 4519584.999899998307228 ], [ -13338795.0001, 4519551.0 ], [ -13338841.0, 4519592.0 ], [ -13338865.0, 4519593.0 ], [ -13338865.0, 4519550.0 ], [ -13338972.0001, 4519482.0 ], [ -13339025.0, 4519359.0 ], [ -13339008.0, 4519354.0 ], [ -13338925.0, 4519197.0 ], [ -13338935.0, 4519129.0 ], [ -13338905.0, 4519087.0 ], [ -13338888.0, 4519022.0 ], [ -13338973.9999, 4519048.0 ], [ -13338989.0, 4519023.0 ], [ -13339028.0, 4519012.0 ], [ -13339054.0, 4519051.999899998307228 ], [ -13339038.0, 4519181.0 ], [ -13338976.0, 4519198.0 ], [ -13339082.0, 4519281.0 ], [ -13339152.0001, 4519302.0 ], [ -13339129.0, 4519322.0 ], [ -13339136.0, 4519347.000100001692772 ], [ -13339111.9999, 4519437.0 ], [ -13339148.0, 4519429.0 ], [ -13339134.0, 4519518.0 ], [ -13339180.0, 4519521.0 ], [ -13339173.0, 4519593.0 ], [ -13339123.0, 4519594.0 ], [ -13339122.0, 4519556.0 ], [ -13339077.0, 4519526.000100001692772 ], [ -13339042.0, 4519526.0 ], [ -13339016.9999, 4519547.999899998307228 ], [ -13338975.0, 4519538.000100001692772 ], [ -13338972.0, 4519571.0 ], [ -13339028.0, 4519585.0 ], [ -13339099.0, 4519638.0 ], [ -13339082.0, 4519653.0 ], [ -13339098.0, 4519669.0 ], [ -13339053.0, 4519755.0 ], [ -13339018.0, 4519763.0 ], [ -13338983.0, 4519723.0 ], [ -13339005.0, 4519779.0 ], [ -13338977.0, 4519783.0 ], [ -13338945.9999, 4519761.999899998307228 ], [ -13338917.0, 4519811.0 ], [ -13338858.0, 4519823.0 ], [ -13338824.0, 4519861.999899998307228 ], [ -13338800.0, 4519839.999899998307228 ], [ -13338785.0001, 4519860.0 ], [ -13338690.0, 4519898.0 ], [ -13338689.0, 4519918.999899998307228 ], [ -13338721.0, 4519944.0 ], [ -13338777.9999, 4519957.000100001692772 ], [ -13338792.0, 4519984.0 ], [ -13338744.9999, 4520034.0 ], [ -13338710.0, 4520040.0 ], [ -13338653.0, 4520003.0 ], [ -13338596.0, 4520052.0 ], [ -13338611.0, 4520075.0 ], [ -13338592.0001, 4520109.000100001692772 ], [ -13338596.0, 4520139.0 ], [ -13338556.0001, 4520201.0 ], [ -13338516.0, 4520220.999899998307228 ], [ -13338475.0, 4520144.0 ], [ -13338447.0, 4520147.0 ], [ -13338461.0, 4520273.0 ], [ -13338523.0, 4520382.0 ], [ -13338446.0, 4520455.0 ], [ -13338501.0, 4520474.0 ], [ -13338568.0, 4520396.0 ], [ -13338611.0, 4520569.0 ], [ -13338660.0, 4520585.0 ], [ -13338675.0, 4520633.0 ], [ -13338723.9999, 4520651.000100001692772 ], [ -13338841.0, 4520655.0 ], [ -13338912.0001, 4520602.0 ], [ -13339061.9999, 4520599.0 ], [ -13339065.0, 4520580.0 ], [ -13339175.0, 4520593.999899998307228 ], [ -13339203.0, 4520628.000100001692772 ], [ -13339300.0, 4520624.999899998307228 ], [ -13339299.0, 4520638.999899998307228 ], [ -13339326.0, 4520652.999899998307228 ], [ -13339285.0, 4520715.0 ], [ -13339247.0001, 4520728.000100001692772 ], [ -13339217.0, 4520817.0 ], [ -13339291.0, 4520873.000100001692772 ], [ -13339328.0, 4520876.0 ], [ -13339338.9999, 4520858.0 ], [ -13339377.0, 4520878.0 ], [ -13339358.0, 4520952.0 ], [ -13339278.0, 4520947.0 ], [ -13339226.0, 4521005.0 ], [ -13339189.0, 4520990.0 ], [ -13339174.0, 4521003.0 ], [ -13339169.9999, 4521054.0 ], [ -13339052.0001, 4521106.0 ], [ -13338981.9999, 4521177.0 ], [ -13338911.0, 4521200.0 ], [ -13338886.0, 4521231.0 ], [ -13338907.0, 4521271.0 ], [ -13338959.0, 4521314.0 ], [ -13338944.0, 4521411.0 ], [ -13338953.9999, 4521430.0 ], [ -13338929.0, 4521474.0 ], [ -13338990.0, 4521635.0 ], [ -13339030.0, 4521636.0 ], [ -13339070.0, 4521679.000100001692772 ], [ -13339113.0, 4521689.0 ], [ -13339267.9999, 4521641.0 ], [ -13339323.0, 4521698.0 ], [ -13339417.0, 4521654.000100001692772 ], [ -13339421.0, 4521619.0 ], [ -13339490.0, 4521619.0 ], [ -13339525.0, 4521669.0 ], [ -13339529.0, 4521713.0 ], [ -13339569.9999, 4521743.0 ], [ -13339627.0001, 4521743.0 ], [ -13339677.0, 4521828.0 ], [ -13339716.0, 4521797.0 ], [ -13339710.0, 4521765.0 ], [ -13339755.0, 4521719.999899998307228 ], [ -13339789.0, 4521716.0 ], [ -13339892.0, 4521657.0 ], [ -13339903.0, 4521630.0 ], [ -13339965.9999, 4521617.0 ], [ -13340024.0, 4521667.0 ], [ -13340023.0001, 4521686.000100001692772 ], [ -13340065.0001, 4521697.999899998307228 ], [ -13340098.0, 4521558.000100001692772 ], [ -13340119.0, 4521566.0 ], [ -13340131.0, 4521536.0 ], [ -13340187.0001, 4521536.0 ], [ -13340227.0001, 4521501.999899998307228 ], [ -13340316.0, 4521504.0 ], [ -13340356.0, 4521475.0 ], [ -13340392.0, 4521480.0 ], [ -13340450.9999, 4521425.0 ], [ -13340525.0, 4521393.0 ], [ -13340554.0001, 4521335.000100001692772 ], [ -13340579.0001, 4521200.0 ], [ -13340501.0, 4521023.000100001692772 ], [ -13340542.0, 4520953.0 ], [ -13340579.0, 4520828.000100001692772 ], [ -13340583.0, 4520730.0 ], [ -13340513.0, 4520637.0 ], [ -13340553.0, 4520612.0 ], [ -13340556.0, 4520568.0 ], [ -13340532.0, 4520492.0 ], [ -13340500.0001, 4520472.0 ], [ -13340545.0, 4520456.0 ], [ -13340590.0, 4520392.000100001692772 ], [ -13340642.0, 4520375.000100001692772 ], [ -13340677.0, 4520341.0 ], [ -13340679.0, 4520278.0 ], [ -13340710.0, 4520249.0 ], [ -13340701.0, 4520182.0 ], [ -13340729.0, 4520140.0 ], [ -13340709.0, 4520010.0 ], [ -13340751.0, 4519999.0 ], [ -13340736.0, 4519982.0 ], [ -13340772.0, 4519894.0 ], [ -13340808.0, 4519885.0 ], [ -13340811.0, 4519864.0 ], [ -13340798.0, 4519837.0 ], [ -13340813.0, 4519814.0 ], [ -13340782.0, 4519748.999899998307228 ], [ -13340788.0, 4519657.0 ], [ -13340718.0, 4519482.0 ], [ -13340752.0, 4519454.0 ], [ -13340825.0001, 4519459.0 ], [ -13340850.0, 4519441.0 ], [ -13340892.9999, 4519452.0 ], [ -13340918.0, 4519479.000100001692772 ], [ -13340982.0, 4519447.0 ], [ -13341023.0, 4519291.999899998307228 ], [ -13341055.0, 4519265.999899998307228 ], [ -13341045.0, 4519243.0 ], [ -13341097.0, 4519206.0 ], [ -13341096.0, 4519176.0 ], [ -13341149.0001, 4519122.999899998307228 ], [ -13341183.0, 4519119.999899998307228 ], [ -13341253.9999, 4518783.0 ], [ -13341308.0, 4518717.0 ], [ -13341351.0, 4518722.0 ], [ -13341389.0001, 4518705.0 ], [ -13341377.0, 4518653.0 ], [ -13341392.0, 4518626.0 ], [ -13341475.0, 4518642.000100001692772 ], [ -13341571.0, 4518632.0 ], [ -13341644.0, 4518675.0 ], [ -13341694.0, 4518659.999899998307228 ], [ -13341739.0, 4518707.0 ], [ -13341783.0, 4518648.0 ], [ -13341751.0, 4518600.0 ], [ -13341758.0, 4518563.999899998307228 ], [ -13341819.0, 4518530.0 ], [ -13341920.9999, 4518549.0 ], [ -13342002.0, 4518439.0 ], [ -13341993.9999, 4518380.0 ], [ -13342028.9999, 4518354.0 ], [ -13342041.0, 4518314.0 ], [ -13341842.0, 4518271.0 ], [ -13341826.0, 4518249.0 ], [ -13341874.0, 4518259.000100001692772 ], [ -13341886.0, 4518255.0 ], [ -13341880.0, 4518223.0 ], [ -13341940.0, 4518211.999899998307228 ], [ -13341935.0, 4518178.000100001692772 ], [ -13341910.0, 4518169.0 ], [ -13341908.0, 4518121.0 ], [ -13341879.0, 4518102.000100001692772 ], [ -13341849.0, 4518124.0 ], [ -13341851.0, 4518104.0 ], [ -13341838.0, 4518102.0 ], [ -13341819.0, 4518123.0 ], [ -13341817.0, 4518091.0 ], [ -13341784.0001, 4518068.0 ], [ -13341805.0, 4518011.0 ], [ -13341770.0, 4517983.0 ], [ -13341735.0001, 4517991.0 ], [ -13341696.9999, 4517966.0 ], [ -13341690.0001, 4517915.0 ], [ -13341732.0, 4517937.0 ], [ -13341746.0, 4517928.0 ], [ -13341757.9999, 4517882.000100001692772 ], [ -13341784.9999, 4517882.999899998307228 ], [ -13341782.0, 4517835.0 ], [ -13341860.0, 4517780.0 ], [ -13341885.0, 4517720.0 ], [ -13341859.0, 4517661.0 ], [ -13341835.0, 4517668.0 ], [ -13341803.0, 4517628.0 ], [ -13341785.0, 4517628.0 ], [ -13341794.0001, 4517610.999899998307228 ], [ -13341767.9999, 4517594.0 ], [ -13341774.0, 4517568.0 ], [ -13341723.9999, 4517525.0 ], [ -13341717.9999, 4517480.0 ], [ -13341680.0, 4517416.0 ], [ -13341593.0, 4517431.0 ], [ -13341552.0, 4517454.0 ], [ -13341524.0, 4517441.0 ], [ -13341480.0, 4517470.0 ], [ -13341449.0, 4517470.0 ], [ -13341476.9999, 4517424.000100001692772 ], [ -13341453.0, 4517360.000100001692772 ], [ -13341419.0001, 4517332.0 ], [ -13341320.9999, 4517353.0 ], [ -13341289.9999, 4517220.0 ], [ -13341210.9999, 4517266.999899998307228 ], [ -13341204.0, 4517287.0 ], [ -13341147.9999, 4517299.0 ], [ -13341090.0, 4517249.000100001692772 ], [ -13341072.0, 4517253.0 ], [ -13341086.0, 4517227.0 ], [ -13341117.0, 4517229.0 ], [ -13341202.9999, 4517184.0 ], [ -13341224.0, 4517189.0 ], [ -13341273.0, 4517141.0 ], [ -13341209.0, 4517010.0 ], [ -13341118.9999, 4516970.0 ], [ -13341106.0, 4516935.0 ], [ -13341074.0, 4516937.0 ], [ -13341086.0, 4516923.0 ], [ -13341071.9999, 4516867.0 ], [ -13340997.9999, 4516812.000100001692772 ], [ -13340978.0, 4516762.0 ], [ -13341005.0, 4516708.0 ], [ -13340939.0, 4516612.0 ], [ -13340854.0, 4516546.0 ], [ -13340796.0, 4516422.0 ], [ -13340745.0, 4516418.0 ], [ -13340791.9999, 4516333.999899998307228 ], [ -13340751.0, 4516245.000100001692772 ], [ -13340614.0, 4516140.0 ], [ -13340495.0, 4516131.0 ], [ -13340412.0, 4516175.0 ], [ -13340385.0, 4516118.000100001692772 ], [ -13340278.0, 4516079.0 ], [ -13340321.0, 4516027.0 ], [ -13340377.0, 4516021.0 ], [ -13340374.0, 4515992.0 ], [ -13340323.0, 4515969.0 ], [ -13340250.0, 4515865.999899998307228 ], [ -13340209.0, 4515852.0 ], [ -13340189.0, 4515872.000100001692772 ], [ -13340179.9999, 4515860.999899998307228 ], [ -13340198.0, 4515743.0 ], [ -13340238.0001, 4515689.999899998307228 ], [ -13340236.0, 4515552.0 ], [ -13340193.0, 4515510.0 ], [ -13340146.0001, 4515515.000100001692772 ], [ -13340136.0, 4515534.0 ], [ -13340105.0, 4515527.0 ], [ -13340124.0, 4515475.0 ], [ -13340120.0, 4515443.0 ], [ -13340100.9999, 4515429.0 ], [ -13340052.0, 4515421.0 ], [ -13340007.0, 4515438.000100001692772 ], [ -13340001.0, 4515423.0 ], [ -13340167.0, 4515333.0 ], [ -13340216.0, 4515343.000100001692772 ], [ -13340320.0, 4515388.999899998307228 ], [ -13340396.0001, 4515493.0 ], [ -13340579.0, 4515610.0 ], [ -13340583.0, 4515634.0 ], [ -13340552.0, 4515643.0 ], [ -13340551.0, 4515661.0 ], [ -13340632.0, 4515768.0 ], [ -13340663.0, 4515757.0 ], [ -13340673.0001, 4515788.0 ], [ -13340731.0, 4515821.0 ], [ -13340717.0, 4515888.0 ], [ -13340758.9999, 4515936.0 ], [ -13340797.0, 4515947.0 ], [ -13340811.0, 4515987.0 ], [ -13340851.0001, 4515983.0 ], [ -13340885.0, 4516069.0 ], [ -13340952.0, 4516091.0 ], [ -13340944.0, 4516144.0 ], [ -13340964.0, 4516181.0 ], [ -13341015.0, 4516198.0 ], [ -13340983.0, 4516254.0 ], [ -13341014.0, 4516324.0 ], [ -13341290.0, 4516516.0 ], [ -13341322.0, 4516528.0 ], [ -13341412.0, 4516520.0 ], [ -13341440.0, 4516555.0 ], [ -13341484.0, 4516572.000100001692772 ], [ -13341505.0, 4516602.0 ], [ -13341501.0, 4516653.000100001692772 ], [ -13341554.0001, 4516708.0 ], [ -13341743.0, 4516793.0 ], [ -13341790.0, 4516843.0 ], [ -13341787.0, 4516899.0 ], [ -13341755.9999, 4516961.0 ], [ -13341772.0, 4516999.000100001692772 ], [ -13341803.0, 4517013.0 ], [ -13341802.0, 4517058.0 ], [ -13341829.0, 4517121.0 ], [ -13341787.0, 4517139.0 ], [ -13341740.0, 4517102.000100001692772 ], [ -13341734.0, 4517071.0 ], [ -13341680.0001, 4517080.0 ], [ -13341703.0, 4517100.0 ], [ -13341694.0, 4517113.0 ], [ -13341729.0, 4517170.0 ], [ -13341777.0001, 4517320.999899998307228 ], [ -13341684.0, 4517334.000100001692772 ], [ -13341684.0, 4517352.0 ], [ -13341737.0, 4517461.0 ], [ -13341805.0, 4517527.0 ], [ -13341825.0, 4517589.0 ], [ -13341967.0, 4517762.0 ], [ -13342009.0, 4517784.0 ], [ -13342121.0, 4517905.0 ], [ -13342148.0, 4518059.0 ], [ -13342155.0, 4518439.999899998307228 ], [ -13342224.0, 4518599.0 ], [ -13342381.0, 4518820.999899998307228 ], [ -13342408.0, 4518912.0 ], [ -13342410.0, 4518991.0 ], [ -13342381.0, 4519015.0 ], [ -13342381.0, 4519048.0 ], [ -13342348.0001, 4519051.0 ], [ -13342268.9999, 4519095.0 ], [ -13342247.0, 4519088.0 ], [ -13342206.0001, 4519131.0 ], [ -13342187.0001, 4519178.0 ], [ -13342195.9999, 4519198.0 ], [ -13342247.0, 4519208.0 ], [ -13342283.0, 4519236.0 ], [ -13342281.0, 4519261.000100001692772 ], [ -13342320.0001, 4519279.0 ], [ -13342413.0, 4519290.0 ], [ -13342444.0, 4519279.0 ], [ -13342564.0, 4519353.000100001692772 ], [ -13342562.0, 4519373.0 ], [ -13342605.0, 4519417.0 ], [ -13342642.0, 4519415.0 ], [ -13342631.0, 4519443.0 ], [ -13342650.0, 4519472.0 ], [ -13342691.0, 4519493.999899998307228 ], [ -13342710.0, 4519468.999899998307228 ], [ -13342677.0, 4519723.0 ], [ -13342791.0, 4519771.0 ], [ -13342832.0, 4519748.000100001692772 ], [ -13342838.0001, 4519713.999899998307228 ], [ -13342932.0, 4519738.0 ], [ -13342996.0, 4519807.0 ], [ -13342975.0, 4519870.0 ], [ -13343030.0001, 4519854.0 ], [ -13343064.0, 4519911.999899998307228 ], [ -13343075.0, 4519941.999899998307228 ], [ -13343060.0, 4519963.0 ], [ -13343084.0, 4519984.0 ], [ -13343076.0, 4520023.0 ], [ -13343068.0, 4520047.0 ], [ -13343010.0, 4520080.0 ], [ -13343000.0, 4520113.000100001692772 ], [ -13342977.0, 4520124.0 ], [ -13342998.0, 4520198.0 ], [ -13343027.0001, 4520237.0 ], [ -13343140.9999, 4520290.999899998307228 ], [ -13343208.0, 4520358.0 ], [ -13343202.0, 4520390.0 ], [ -13343268.9999, 4520552.0 ], [ -13343262.0, 4520599.000100001692772 ], [ -13343239.0, 4520599.0 ], [ -13343271.0, 4520616.0 ], [ -13343269.0, 4520635.000100001692772 ], [ -13343240.0, 4520644.0 ], [ -13343274.0, 4520681.000100001692772 ], [ -13343295.0, 4520762.0 ], [ -13343336.9999, 4520780.999899998307228 ], [ -13343367.0001, 4520836.0 ], [ -13343481.0, 4520921.0 ], [ -13343538.0, 4521000.0 ], [ -13343543.0, 4521020.999899998307228 ], [ -13343518.0, 4521044.0 ], [ -13343526.0, 4521061.999899998307228 ], [ -13343492.0, 4521066.0 ], [ -13343503.0, 4521121.000100001692772 ], [ -13343562.0001, 4521112.0 ], [ -13343605.0, 4521221.0 ], [ -13343694.0, 4521302.0 ], [ -13343724.0, 4521310.0 ], [ -13343708.0, 4521446.999899998307228 ], [ -13343659.0, 4521513.999899998307228 ], [ -13343631.0, 4521545.999899998307228 ], [ -13343619.0001, 4521507.0 ], [ -13343592.0, 4521506.000100001692772 ], [ -13343537.0, 4521600.0 ], [ -13343464.0, 4521634.0 ], [ -13343467.0, 4521676.0 ], [ -13343495.9999, 4521693.0 ], [ -13343563.0, 4521680.999899998307228 ], [ -13343569.0, 4521761.0 ], [ -13343506.0, 4521812.0 ], [ -13343470.0, 4521867.0 ], [ -13343524.0, 4521969.999899998307228 ], [ -13343533.0, 4522145.0 ], [ -13343676.9999, 4522229.0 ], [ -13343844.0, 4522248.0 ], [ -13343850.0, 4522336.0 ], [ -13343940.0001, 4522379.000100001692772 ], [ -13343871.0, 4522514.999899998307228 ], [ -13343923.9999, 4522540.0 ], [ -13344026.0, 4522399.0 ], [ -13344062.0001, 4522423.0 ], [ -13344075.0, 4522502.0 ], [ -13344147.0, 4522509.0 ], [ -13344218.0001, 4522494.0 ], [ -13344264.0, 4522515.0 ], [ -13344290.0, 4522601.0 ], [ -13344365.0, 4522661.999899998307228 ], [ -13344389.0001, 4522726.999899998307228 ], [ -13344448.0, 4522791.0 ], [ -13344549.0, 4522834.0 ], [ -13344577.9999, 4522875.0 ], [ -13344656.0, 4522865.0 ], [ -13344833.9999, 4522712.0 ], [ -13344832.9999, 4522683.0 ], [ -13344855.0, 4522693.0 ], [ -13344865.0, 4522677.999899998307228 ], [ -13344905.0, 4522679.0 ], [ -13344921.0, 4522638.0 ], [ -13344954.9999, 4522644.0 ], [ -13345084.0, 4522581.000100001692772 ], [ -13345117.0, 4522530.0 ], [ -13345209.0, 4522504.0 ], [ -13345298.0, 4522432.000100001692772 ], [ -13345329.0, 4522357.0 ], [ -13345417.0, 4522354.0 ], [ -13345552.0, 4522291.0 ], [ -13345577.0, 4522231.0 ], [ -13345611.0, 4522220.0 ], [ -13345633.0, 4522183.0 ], [ -13345641.0, 4522158.0 ], [ -13345619.0, 4522118.0 ], [ -13345654.0, 4522084.0 ], [ -13345609.9999, 4522031.0 ], [ -13345483.0, 4522002.0 ], [ -13345506.0, 4521937.000100001692772 ], [ -13345540.0, 4521953.0 ], [ -13345593.0001, 4521949.0 ], [ -13345608.0, 4521964.0 ], [ -13345701.0, 4521963.0 ], [ -13345733.0, 4521924.0 ], [ -13345738.0, 4521858.0 ], [ -13345776.0, 4521863.999899998307228 ], [ -13345797.0, 4521887.0 ], [ -13345851.0, 4521877.0 ], [ -13345892.0001, 4521901.000100001692772 ], [ -13345990.0001, 4521863.0 ], [ -13346089.0001, 4521896.999899998307228 ], [ -13346095.0, 4521870.0 ], [ -13346139.9999, 4521844.0 ], [ -13346138.0, 4521820.0 ], [ -13346160.0, 4521805.999899998307228 ], [ -13346144.0, 4521714.000100001692772 ], [ -13346182.0, 4521676.0 ], [ -13346151.0, 4521608.999899998307228 ], [ -13346242.0, 4521534.0 ], [ -13346278.0, 4521543.0 ], [ -13346316.0, 4521591.0 ], [ -13346371.0, 4521577.999899998307228 ], [ -13346389.0, 4521601.0 ], [ -13346291.0, 4521648.0 ], [ -13346274.0, 4521692.0 ], [ -13346289.0, 4521698.0 ], [ -13346277.0, 4521767.0 ], [ -13346287.0, 4521796.0 ], [ -13346375.0001, 4521796.000100001692772 ], [ -13346450.0, 4521751.0 ], [ -13346482.9999, 4521688.000100001692772 ], [ -13346512.0, 4521700.000100001692772 ], [ -13346550.9999, 4521689.0 ], [ -13346606.9999, 4521619.0 ], [ -13346584.0, 4521588.0 ], [ -13346664.0, 4521512.0 ], [ -13346668.0, 4521483.0 ], [ -13346634.0001, 4521471.0 ], [ -13346637.0, 4521405.999899998307228 ], [ -13346666.0, 4521396.0 ], [ -13346773.0, 4521424.0 ], [ -13346797.0, 4521414.0 ], [ -13346836.0, 4521385.0 ], [ -13346859.0, 4521304.0 ], [ -13346959.0001, 4521255.0 ], [ -13347000.0, 4521213.0 ], [ -13347038.0, 4521213.0 ], [ -13347048.0, 4521146.0 ], [ -13347064.9999, 4521132.0 ], [ -13347049.0, 4521092.000100001692772 ], [ -13347017.0, 4521076.0 ], [ -13346933.0, 4521086.999899998307228 ], [ -13346904.0, 4521069.0 ], [ -13346923.0, 4521035.000100001692772 ], [ -13346986.0, 4520995.0 ], [ -13346999.0001, 4520966.0 ], [ -13346975.0, 4520934.0 ], [ -13346904.0, 4520925.0 ], [ -13346931.9999, 4520849.000100001692772 ], [ -13346926.0001, 4520808.0 ], [ -13346877.0, 4520794.0 ], [ -13346926.0, 4520698.0 ], [ -13346966.0, 4520667.0 ], [ -13346967.0, 4520605.000100001692772 ], [ -13346890.0, 4520615.0 ], [ -13346876.0, 4520578.999899998307228 ], [ -13346883.0, 4520527.0 ], [ -13346869.0, 4520517.0 ], [ -13346884.0, 4520494.0 ], [ -13346856.0, 4520471.0 ], [ -13346807.9999, 4520515.0 ], [ -13346792.0, 4520509.0 ], [ -13346778.0, 4520482.0 ], [ -13346814.0, 4520459.0 ], [ -13346818.0, 4520410.0 ], [ -13346846.0, 4520361.0 ], [ -13346833.0, 4520345.0 ], [ -13346776.0, 4520356.0 ], [ -13346752.0, 4520339.0 ], [ -13346730.0, 4520250.0 ], [ -13346831.0, 4520184.0 ], [ -13346847.0, 4520104.999899998307228 ], [ -13346935.9999, 4520053.0 ], [ -13346919.0, 4519977.999899998307228 ], [ -13346936.9999, 4519956.0 ], [ -13346939.0, 4519899.0 ], [ -13346961.0, 4519885.0 ], [ -13347009.0001, 4519947.0 ], [ -13347035.0001, 4519946.0 ], [ -13347084.0, 4519987.000100001692772 ], [ -13347104.0, 4519970.999899998307228 ], [ -13347149.0, 4520008.999899998307228 ], [ -13347148.0, 4520027.0 ], [ -13347188.0, 4520047.0 ], [ -13347221.9999, 4519956.0 ], [ -13347253.0, 4519962.0 ], [ -13347270.0, 4520009.000100001692772 ], [ -13347259.0, 4520033.0 ], [ -13347285.0, 4520010.0 ], [ -13347303.0, 4520027.0 ], [ -13347308.0, 4520006.0 ], [ -13347341.0, 4520036.0 ], [ -13347344.9999, 4520015.0 ], [ -13347375.0, 4520037.0 ], [ -13347432.0, 4520000.0 ], [ -13347524.0, 4520026.999899998307228 ], [ -13347659.0001, 4520035.0 ], [ -13347664.0, 4519896.000100001692772 ], [ -13347566.0, 4519871.0 ], [ -13347511.0, 4519898.999899998307228 ], [ -13347467.0, 4519882.0 ], [ -13347465.0, 4519861.0 ], [ -13347494.0, 4519834.0 ], [ -13347490.9999, 4519794.0 ], [ -13347433.0, 4519778.0 ], [ -13347426.0, 4519804.0 ], [ -13347363.0, 4519817.0 ], [ -13347294.0, 4519730.0 ], [ -13347241.0, 4519713.0 ], [ -13347248.0001, 4519650.000100001692772 ], [ -13347270.0, 4519664.0 ], [ -13347337.0, 4519574.0 ], [ -13347386.0001, 4519557.0 ], [ -13347431.0, 4519446.0 ], [ -13347524.0001, 4519291.0 ], [ -13347563.0, 4519293.0 ], [ -13347572.0, 4519250.000100001692772 ], [ -13347654.0, 4519173.0 ], [ -13347693.0, 4519165.0 ], [ -13347793.0, 4519188.000100001692772 ], [ -13347849.0, 4519167.0 ], [ -13348000.0, 4519054.000100001692772 ], [ -13348084.0, 4519041.000100001692772 ], [ -13348150.0, 4518953.0 ], [ -13348196.0, 4518839.999899998307228 ], [ -13348166.0, 4518797.0 ], [ -13348116.0, 4518763.0 ], [ -13348103.0, 4518622.0 ], [ -13348029.0, 4518464.0 ], [ -13347965.0, 4518412.0 ], [ -13347902.0, 4518167.999899998307228 ], [ -13347825.0, 4518094.000100001692772 ], [ -13347803.0, 4517873.0 ], [ -13347746.0, 4517682.0 ], [ -13347788.0, 4517628.0 ], [ -13347759.0, 4517588.0 ], [ -13347784.0, 4517589.0 ], [ -13347823.0, 4517516.0 ], [ -13347916.0, 4517405.0 ], [ -13347967.0001, 4517377.0 ], [ -13347996.0, 4517385.999899998307228 ], [ -13348038.0, 4517331.0 ], [ -13348016.0, 4517266.0 ], [ -13347969.0, 4517243.0 ], [ -13347955.0, 4517202.0 ], [ -13347956.0, 4517152.0 ], [ -13348058.0, 4516979.000100001692772 ], [ -13348046.0, 4516899.0 ], [ -13347957.0, 4516831.0 ], [ -13347909.0001, 4516658.0 ], [ -13347997.0, 4516394.000100001692772 ], [ -13347990.0, 4516312.0 ], [ -13348053.0, 4516158.0 ], [ -13348101.0, 4516131.0 ], [ -13348306.0, 4516112.0 ], [ -13348342.9999, 4516079.000100001692772 ], [ -13348415.0, 4516129.0 ], [ -13348457.0, 4516053.0 ], [ -13348506.0, 4516016.0 ], [ -13348562.0001, 4516072.0 ], [ -13348742.9999, 4516094.0 ], [ -13348822.0, 4516067.000100001692772 ], [ -13348870.9999, 4516026.0 ], [ -13348872.0, 4515980.0 ], [ -13349024.0, 4515969.0 ], [ -13349209.9999, 4515895.0 ], [ -13349355.9999, 4515896.0 ], [ -13349369.0, 4515860.000100001692772 ], [ -13349382.0, 4515781.0 ], [ -13349364.0, 4515708.000100001692772 ], [ -13349324.0, 4515659.000100001692772 ], [ -13349293.0, 4515443.0 ], [ -13349326.0, 4515394.0 ], [ -13349322.0, 4515334.0 ], [ -13349233.9999, 4515235.0 ], [ -13349251.0, 4515147.0 ], [ -13349158.0, 4514991.999899998307228 ], [ -13349106.0, 4514934.0 ], [ -13349012.0, 4514874.999899998307228 ], [ -13348921.0, 4514746.0 ], [ -13348903.0, 4514609.0 ], [ -13348917.0, 4514582.0 ], [ -13348962.0, 4514590.0 ], [ -13349023.0, 4514530.0 ], [ -13348971.0, 4514431.0 ], [ -13349153.0001, 4514212.999899998307228 ], [ -13349174.0, 4514172.000100001692772 ], [ -13349172.0, 4514108.000100001692772 ], [ -13349079.0, 4513989.0 ], [ -13349055.0, 4513897.0 ], [ -13348973.0001, 4513748.0 ], [ -13348890.9999, 4513643.0 ], [ -13348802.0, 4513620.0 ], [ -13348742.0001, 4513552.0 ], [ -13348647.0, 4513495.0 ], [ -13348640.0, 4513441.0 ], [ -13348609.0, 4513426.0 ], [ -13348560.0, 4513468.0 ], [ -13348503.0, 4513422.0 ], [ -13348414.0, 4513303.0 ], [ -13348425.0001, 4513259.0 ], [ -13348282.0, 4513232.999899998307228 ], [ -13348269.0, 4513205.999899998307228 ], [ -13348288.0, 4512998.0 ], [ -13348273.0, 4512974.0 ], [ -13348203.0, 4512962.0 ], [ -13348095.0, 4512976.0 ], [ -13347981.0, 4512937.999899998307228 ], [ -13347952.0, 4512897.0 ], [ -13348054.0, 4512827.0 ], [ -13348142.0001, 4512698.999899998307228 ], [ -13348131.0, 4512619.0 ], [ -13348162.0, 4512516.000100001692772 ], [ -13348162.0, 4512452.0 ], [ -13348193.0, 4512378.000100001692772 ], [ -13348266.0, 4512378.0 ], [ -13348282.0, 4512404.0 ], [ -13348357.0, 4512448.0 ], [ -13348364.9999, 4512417.0 ], [ -13348348.0, 4512345.000100001692772 ], [ -13348460.0, 4512347.0 ], [ -13348457.0, 4512409.0 ], [ -13348472.0001, 4512428.0 ], [ -13348657.0, 4512463.0 ], [ -13348706.9999, 4512441.0 ], [ -13348767.0, 4512450.999899998307228 ], [ -13348802.0, 4512411.0 ], [ -13348774.0, 4512329.0 ], [ -13348792.0, 4512300.0 ], [ -13348785.0, 4512261.0 ], [ -13348841.0, 4512219.0 ], [ -13348920.0, 4512220.999899998307228 ], [ -13348937.0001, 4512248.000100001692772 ], [ -13348922.0, 4512290.0 ], [ -13348956.0, 4512310.000100001692772 ], [ -13349027.0, 4512252.0 ], [ -13349013.0, 4512084.0 ], [ -13349107.0, 4511903.0 ], [ -13349106.0, 4511850.0 ], [ -13349026.9999, 4511761.0 ], [ -13349069.0, 4511733.0 ], [ -13348856.0, 4511668.0 ], [ -13348875.0, 4511627.0 ], [ -13348964.0, 4511603.0 ], [ -13349007.0, 4511632.0 ], [ -13349026.0, 4511629.0 ], [ -13349043.0, 4511669.0 ], [ -13349073.0, 4511661.0 ], [ -13349099.0, 4511584.0 ], [ -13349169.0, 4511621.0 ], [ -13349206.9999, 4511600.0 ], [ -13349251.0, 4511614.000100001692772 ], [ -13349300.9999, 4511549.999899998307228 ], [ -13349298.0, 4511522.999899998307228 ], [ -13349355.0, 4511509.0 ], [ -13349405.0, 4511462.0 ], [ -13349413.0, 4511404.000100001692772 ], [ -13349446.0, 4511374.0 ], [ -13349472.0, 4511293.0 ], [ -13349512.0, 4511237.0 ], [ -13349506.0, 4511128.000100001692772 ], [ -13349543.0, 4511093.0 ], [ -13349563.0, 4511016.000100001692772 ], [ -13349497.0, 4511032.0 ], [ -13349411.0, 4511023.0 ], [ -13349468.0, 4510935.0 ], [ -13349553.0, 4510903.0 ], [ -13349646.0001, 4510931.0 ], [ -13349752.0, 4510908.0 ], [ -13349782.0, 4510833.0 ], [ -13349768.9999, 4510755.999899998307228 ], [ -13349715.0, 4510707.0 ], [ -13349664.0, 4510617.0 ], [ -13349750.0, 4510594.0 ], [ -13349886.0, 4510354.0 ], [ -13350010.0, 4510328.0 ], [ -13350055.0, 4510291.0 ], [ -13350158.0001, 4510163.0 ], [ -13350199.9999, 4510070.0 ], [ -13350171.9999, 4509886.0 ], [ -13350080.0, 4509668.000100001692772 ], [ -13350047.0001, 4509638.0 ], [ -13349985.0, 4509617.0 ], [ -13350012.0, 4509563.0 ], [ -13350076.0, 4509533.0 ], [ -13350100.0, 4509491.999899998307228 ], [ -13350176.0, 4509475.000100001692772 ], [ -13350165.0, 4509453.000100001692772 ], [ -13350094.0, 4509426.0 ], [ -13350074.0, 4509395.000100001692772 ], [ -13350081.0, 4509326.000100001692772 ], [ -13350009.0, 4509190.0 ], [ -13349939.0, 4509155.0 ], [ -13349880.0001, 4509152.000100001692772 ], [ -13349672.0, 4509178.999899998307228 ], [ -13349644.0, 4509084.0 ], [ -13349538.0, 4509035.0 ], [ -13349455.0, 4509083.999899998307228 ], [ -13349357.9999, 4509107.000100001692772 ], [ -13349169.0001, 4509099.0 ], [ -13349119.0, 4509053.0 ], [ -13349120.0, 4508965.0 ], [ -13349190.0, 4509003.0 ], [ -13349325.0, 4508955.999899998307228 ], [ -13349343.9999, 4508872.0 ], [ -13349316.9999, 4508853.0 ], [ -13349325.0001, 4508817.0 ], [ -13349265.0, 4508816.0 ], [ -13349159.0, 4508777.0 ], [ -13349201.9999, 4508742.0 ], [ -13349209.0, 4508715.0 ], [ -13349195.0, 4508685.0 ], [ -13349168.9999, 4508677.0 ], [ -13348938.0, 4508700.0 ], [ -13348992.0, 4508811.0 ], [ -13348957.0001, 4508937.0 ], [ -13349017.0, 4508988.0 ], [ -13349046.0, 4509091.0 ], [ -13348996.0, 4509143.0 ], [ -13348833.0, 4509122.0 ], [ -13348808.0, 4509035.0 ], [ -13348849.0, 4508950.000100001692772 ], [ -13348832.9999, 4508873.000100001692772 ], [ -13348876.0, 4508863.0 ], [ -13348885.0, 4508842.0 ], [ -13348876.0, 4508717.999899998307228 ], [ -13348847.0, 4508691.0 ], [ -13348730.0, 4508704.000100001692772 ], [ -13348638.9999, 4508799.0 ], [ -13348629.0, 4508860.000100001692772 ], [ -13348649.0, 4508877.0 ], [ -13348716.0, 4508877.999899998307228 ], [ -13348697.0, 4508952.0 ], [ -13348641.0, 4508959.0 ], [ -13348583.0, 4509040.0 ], [ -13348584.0, 4509130.0 ], [ -13348608.0, 4509176.0 ], [ -13348658.0, 4509168.0 ], [ -13348690.9999, 4509257.0 ], [ -13348665.0, 4509358.0 ], [ -13348682.0, 4509431.0 ], [ -13348592.9999, 4509468.0 ], [ -13348519.0, 4509463.999899998307228 ], [ -13348505.0001, 4509524.0 ], [ -13348600.0001, 4509785.0 ], [ -13348670.9999, 4509835.000100001692772 ], [ -13348603.0, 4509936.999899998307228 ], [ -13348453.0, 4510020.000100001692772 ], [ -13348262.0, 4510060.0 ], [ -13348145.0001, 4510064.0 ], [ -13348030.0, 4510142.0 ], [ -13348021.0, 4510191.0 ], [ -13348039.0, 4510251.0 ], [ -13348020.0, 4510344.0 ], [ -13347946.0, 4510346.0 ], [ -13347889.0, 4510320.0 ], [ -13347760.0, 4510352.0 ], [ -13347721.0, 4510405.0 ], [ -13347801.0, 4510447.000100001692772 ], [ -13347882.0, 4510466.000100001692772 ], [ -13347900.0, 4510549.000100001692772 ], [ -13347884.0, 4510626.0 ], [ -13347679.0, 4510631.0 ], [ -13347537.0, 4510595.0 ], [ -13347542.0, 4510461.0 ], [ -13347471.0, 4510468.0 ], [ -13347358.9999, 4510421.0 ], [ -13347329.0, 4510442.0 ], [ -13347355.0, 4510509.0 ], [ -13347349.0, 4510557.999899998307228 ], [ -13347249.0, 4510579.0 ], [ -13347157.0, 4510462.0 ], [ -13347059.9999, 4510423.000100001692772 ], [ -13347103.0, 4510396.0 ], [ -13347145.0, 4510265.0 ], [ -13347103.9999, 4510178.0 ], [ -13346882.9999, 4509922.0 ], [ -13346756.0, 4509938.0 ], [ -13346666.0, 4509974.999899998307228 ], [ -13346601.0, 4509893.0 ], [ -13346696.0, 4509868.0 ], [ -13346711.9999, 4509793.0 ], [ -13346628.0001, 4509739.0 ], [ -13346671.0, 4509713.000100001692772 ], [ -13346725.0, 4509744.0 ], [ -13346751.0001, 4509737.0 ], [ -13346773.0, 4509684.0 ], [ -13346803.9999, 4509696.999899998307228 ], [ -13346835.0, 4509656.0 ], [ -13346854.0, 4509670.0 ], [ -13346873.0, 4509521.0 ], [ -13346860.0, 4509283.0 ], [ -13346841.0, 4509198.000100001692772 ], [ -13346858.0, 4509084.999899998307228 ], [ -13346834.0, 4508920.0 ], [ -13346821.0, 4508622.000100001692772 ], [ -13346789.0001, 4508485.999899998307228 ], [ -13346704.0001, 4508490.999899998307228 ], [ -13346657.0, 4508559.0 ], [ -13346600.0001, 4508579.0 ], [ -13346575.0, 4508538.000100001692772 ], [ -13346530.0, 4508569.0 ], [ -13346482.0, 4508563.0 ], [ -13346440.0, 4508507.0 ], [ -13346437.0, 4508476.0 ], [ -13346367.0, 4508444.0 ], [ -13346341.0, 4508474.0 ], [ -13346259.0, 4508430.0 ], [ -13346213.0, 4508447.0 ], [ -13346218.0001, 4508477.0 ], [ -13346129.0, 4508479.999899998307228 ], [ -13346045.0, 4508509.000100001692772 ], [ -13345929.0, 4508579.0 ], [ -13345901.9999, 4508554.0 ], [ -13345912.0, 4508471.0 ], [ -13345899.0, 4508402.000100001692772 ], [ -13345858.0, 4508388.0 ], [ -13345789.0, 4508410.0 ], [ -13345756.0, 4508472.0 ], [ -13345696.0, 4508449.0 ], [ -13345656.0, 4508481.000100001692772 ], [ -13345532.0, 4508496.000100001692772 ], [ -13345516.0, 4508520.0 ], [ -13345442.0001, 4508533.0 ], [ -13345327.0, 4508548.0 ], [ -13345292.0, 4508543.0 ], [ -13345239.0, 4508484.0 ], [ -13345161.9999, 4508471.0 ], [ -13345136.9999, 4508493.0 ], [ -13345043.0, 4508405.0 ], [ -13345040.0, 4508294.0 ], [ -13344998.0, 4508207.000100001692772 ], [ -13344993.0, 4508133.999899998307228 ], [ -13344926.0, 4508055.000100001692772 ], [ -13344899.0, 4508060.0 ], [ -13344865.0, 4508024.0 ], [ -13344770.0, 4507846.0 ], [ -13344763.0001, 4507802.000100001692772 ], [ -13344700.0, 4507751.0 ], [ -13344681.0, 4507708.000100001692772 ], [ -13344758.9999, 4507666.000100001692772 ], [ -13344738.0, 4507586.0 ], [ -13344678.0, 4507525.0 ], [ -13344685.0, 4507422.0 ], [ -13344666.0, 4507359.000100001692772 ], [ -13344598.0, 4507339.0 ], [ -13344493.0, 4507263.999899998307228 ], [ -13344464.9999, 4507228.999899998307228 ], [ -13344451.0, 4507089.0 ], [ -13344427.0, 4507101.999899998307228 ], [ -13344376.0, 4507068.0 ], [ -13344380.0, 4507021.0 ], [ -13344360.0, 4507030.0 ], [ -13344268.0, 4506972.0 ], [ -13344218.0, 4506984.000100001692772 ], [ -13344146.0, 4507044.0 ], [ -13344079.0, 4507011.0 ], [ -13344073.0, 4507065.0 ], [ -13344037.0, 4507082.0 ], [ -13344017.0, 4507072.999899998307228 ], [ -13344014.0, 4507009.000100001692772 ], [ -13343918.0, 4506952.000100001692772 ], [ -13343796.0, 4507045.0 ], [ -13343694.0001, 4507034.0 ], [ -13343651.0, 4507046.0 ], [ -13343601.9999, 4507103.000100001692772 ], [ -13343590.0, 4507190.0 ], [ -13343549.0, 4507231.0 ], [ -13343526.0001, 4507230.0 ], [ -13343346.0, 4507353.999899998307228 ], [ -13343277.0, 4507385.0 ], [ -13343213.0, 4507485.0 ], [ -13343143.0, 4507501.0 ], [ -13343146.0, 4507528.0 ], [ -13343065.0001, 4507621.0 ], [ -13343074.0, 4507635.0 ], [ -13343048.0, 4507686.0 ], [ -13343023.0, 4507705.999899998307228 ], [ -13342944.0, 4507717.0 ], [ -13342893.0001, 4507758.0 ], [ -13342890.9999, 4508051.0 ], [ -13343003.0, 4508130.0 ], [ -13342997.0, 4508251.0 ], [ -13342961.0, 4508334.0 ], [ -13342837.0, 4508445.999899998307228 ], [ -13342799.0, 4508447.000100001692772 ], [ -13342811.0, 4508409.0 ], [ -13342727.9999, 4508381.999899998307228 ], [ -13342606.0, 4508394.0 ], [ -13342466.0001, 4508472.0 ], [ -13342295.0, 4508498.0 ], [ -13342224.0, 4508622.0 ], [ -13342300.9999, 4508742.000100001692772 ], [ -13342283.0, 4508806.0 ], [ -13342211.0, 4508871.0 ], [ -13342191.0, 4508997.0 ], [ -13342203.0001, 4509096.0 ], [ -13342250.0, 4509158.0 ], [ -13342197.0, 4509303.000100001692772 ], [ -13342187.9999, 4509521.0 ], [ -13342077.0, 4509606.000100001692772 ], [ -13342014.0, 4509704.0 ], [ -13341978.0, 4509815.0 ], [ -13341874.0, 4509964.999899998307228 ], [ -13341788.0, 4509968.000100001692772 ], [ -13341784.9999, 4509878.0 ], [ -13341824.0, 4509787.000100001692772 ], [ -13341778.0, 4509738.000100001692772 ], [ -13341716.0, 4509738.000100001692772 ], [ -13341632.0, 4509681.0 ], [ -13341516.0, 4509695.0 ], [ -13341410.0, 4509760.999899998307228 ], [ -13341319.0, 4509790.0 ], [ -13341238.0, 4509964.0 ], [ -13341150.0, 4509911.0 ], [ -13341049.0, 4509952.0 ], [ -13340925.0, 4509957.0 ], [ -13340878.9999, 4510018.0 ], [ -13340943.0, 4510109.0 ], [ -13340976.0, 4510223.0 ], [ -13340950.0, 4510405.0 ], [ -13340844.0, 4510583.999899998307228 ], [ -13340808.0, 4510559.999899998307228 ], [ -13340759.0, 4510555.0 ], [ -13340677.0, 4510599.0 ], [ -13340561.0, 4510629.0 ], [ -13340504.0, 4510692.000100001692772 ], [ -13340446.0, 4510675.0 ], [ -13340424.0001, 4510702.999899998307228 ], [ -13340424.0, 4510742.000100001692772 ], [ -13340356.0, 4510785.0 ], [ -13340330.9999, 4510837.0 ], [ -13340183.0, 4511006.0 ], [ -13340119.0, 4511131.000100001692772 ], [ -13340116.9999, 4511179.0 ], [ -13340033.0, 4511235.0 ], [ -13339989.0, 4511338.0 ], [ -13339964.9999, 4511355.0 ], [ -13339911.9999, 4511598.0 ], [ -13339727.0, 4511740.0 ], [ -13339659.9999, 4511884.0 ], [ -13339633.9999, 4511921.999899998307228 ], [ -13339575.0, 4511959.0 ], [ -13339547.0, 4512005.0 ], [ -13339503.9999, 4512038.0 ], [ -13339386.0, 4512057.999899998307228 ], [ -13339373.0, 4512155.0 ], [ -13339335.0, 4512067.0 ], [ -13339031.9999, 4511980.000100001692772 ], [ -13338977.0, 4511979.0 ], [ -13338914.0, 4511947.999899998307228 ], [ -13338828.0, 4511943.0 ], [ -13338793.0, 4511974.0 ], [ -13338777.0, 4512019.0 ], [ -13338748.0001, 4511999.0 ], [ -13338780.0, 4511943.0 ], [ -13338740.0, 4511907.000100001692772 ], [ -13338575.0, 4511883.0 ], [ -13338519.0, 4511899.0 ], [ -13338478.0, 4511854.0 ], [ -13338366.0001, 4511829.0 ], [ -13338288.0, 4511885.0 ], [ -13338259.0, 4511892.0 ], [ -13338234.0, 4511877.0 ], [ -13338219.9999, 4511908.0 ], [ -13338126.0, 4511991.000100001692772 ], [ -13338018.0, 4512003.0 ], [ -13337980.0, 4512070.999899998307228 ], [ -13337930.0, 4512104.0 ], [ -13337927.0, 4512123.0 ], [ -13337953.0, 4512149.000100001692772 ], [ -13337900.9999, 4512183.0 ], [ -13337906.0, 4512202.0 ], [ -13337868.0, 4512248.0 ], [ -13337871.9999, 4512296.0 ], [ -13337852.0, 4512298.0 ], [ -13337814.0001, 4512411.0 ], [ -13337785.0, 4512425.0 ], [ -13337719.0, 4512521.0 ], [ -13337617.0, 4512564.0 ], [ -13337565.0, 4512608.0 ], [ -13337554.0, 4512636.0 ], [ -13337581.0, 4512640.0 ], [ -13337590.0, 4512661.0 ], [ -13337526.0, 4512681.0 ], [ -13337521.0001, 4512707.0 ], [ -13337431.9999, 4512729.0 ], [ -13337421.0, 4512762.0 ], [ -13337435.0, 4512787.000100001692772 ], [ -13337360.0, 4512801.000100001692772 ], [ -13337356.0, 4512841.0 ], [ -13337315.0001, 4512856.0 ], [ -13337252.0, 4512845.000100001692772 ], [ -13337235.0, 4512880.999899998307228 ], [ -13337167.0, 4512889.999899998307228 ], [ -13337126.0, 4512927.0 ], [ -13337050.0, 4512945.0 ], [ -13337049.9999, 4512976.0 ], [ -13337026.0, 4512981.999899998307228 ], [ -13337020.0, 4513011.999899998307228 ], [ -13337121.0, 4513183.0 ], [ -13337081.0, 4513205.0 ], [ -13337059.0, 4513247.999899998307228 ], [ -13337038.0, 4513254.999899998307228 ], [ -13336996.0, 4513225.0 ], [ -13336991.9999, 4513163.999899998307228 ], [ -13336966.9999, 4513185.0 ], [ -13336956.0001, 4513241.0 ], [ -13336922.0, 4513264.0 ], [ -13336921.0, 4513294.0 ], [ -13336853.0, 4513302.0 ], [ -13336833.0, 4513319.999899998307228 ], [ -13336833.0, 4513351.0 ], [ -13336889.0, 4513403.000100001692772 ], [ -13336913.0, 4513374.999899998307228 ], [ -13336918.0, 4513386.999899998307228 ], [ -13336986.0, 4513390.0 ], [ -13337035.0, 4513354.0 ], [ -13337089.0, 4513368.0 ], [ -13337110.0, 4513339.0 ], [ -13337095.0001, 4513262.0 ], [ -13337105.0, 4513245.0 ], [ -13337138.0, 4513239.0 ], [ -13337224.0001, 4513287.0 ], [ -13337243.0, 4513318.0 ], [ -13337294.0, 4513328.999899998307228 ], [ -13337315.0, 4513357.0 ], [ -13337335.0, 4513355.0 ], [ -13337326.0, 4513330.999899998307228 ], [ -13337343.9999, 4513328.0 ], [ -13337401.0, 4513367.999899998307228 ], [ -13337510.0, 4513480.0 ], [ -13337501.0, 4513508.0 ], [ -13337478.0, 4513514.0 ], [ -13337482.0, 4513544.0 ], [ -13337541.0, 4513579.0 ], [ -13337565.0001, 4513633.0 ], [ -13337609.0, 4513651.0 ], [ -13337595.0, 4513680.0 ], [ -13337625.0, 4513729.0 ], [ -13337577.0, 4513750.999899998307228 ], [ -13337551.0, 4513794.999899998307228 ], [ -13337640.0, 4513837.0 ], [ -13337627.0, 4513900.0 ], [ -13337646.0, 4513969.0 ], [ -13337697.9999, 4514004.0 ], [ -13337672.0, 4514029.0 ], [ -13337667.0, 4514062.0 ], [ -13337756.0, 4514111.0 ], [ -13337837.0, 4514108.0 ], [ -13337884.0, 4514150.0 ], [ -13337879.0, 4514172.000100001692772 ], [ -13337851.0, 4514181.0 ], [ -13337835.0, 4514209.0 ], [ -13337856.0, 4514235.0 ], [ -13337897.0, 4514223.000100001692772 ], [ -13337907.0, 4514238.0 ], [ -13337823.9999, 4514337.000100001692772 ], [ -13337792.0, 4514347.0 ], [ -13337785.0, 4514392.0 ], [ -13337746.0, 4514392.0 ], [ -13337713.0, 4514422.0 ], [ -13337683.9999, 4514417.0 ], [ -13337595.9999, 4514455.0 ], [ -13337587.0, 4514471.0 ], [ -13337679.0, 4514527.0 ], [ -13337673.0001, 4514557.999899998307228 ], [ -13337659.0, 4514562.0 ], [ -13337640.0, 4514532.0 ], [ -13337576.0, 4514557.0 ], [ -13337567.0, 4514613.0 ], [ -13337625.0, 4514613.0 ], [ -13337604.0, 4514669.0 ], [ -13337499.0, 4514708.0 ], [ -13337508.0, 4514668.999899998307228 ], [ -13337466.0, 4514659.0 ], [ -13337490.0, 4514640.0 ], [ -13337439.0, 4514630.0 ], [ -13337398.0, 4514660.0 ], [ -13337413.0, 4514704.0 ], [ -13337408.0, 4514720.0 ], [ -13337390.0, 4514710.0 ], [ -13337394.9999, 4514754.0 ], [ -13337336.0, 4514717.0 ], [ -13337309.0, 4514906.0 ], [ -13337353.0, 4514962.000100001692772 ], [ -13337384.0, 4514953.0 ], [ -13337400.9999, 4514972.0 ], [ -13337356.0, 4514979.000100001692772 ], [ -13337306.0, 4515028.0 ], [ -13337238.0, 4515154.0 ], [ -13337231.0, 4515226.0 ], [ -13337243.0, 4515239.000100001692772 ], [ -13337216.0, 4515279.999899998307228 ], [ -13337248.0, 4515307.0 ], [ -13337251.0, 4515410.0 ], [ -13337238.0, 4515429.0 ], [ -13337189.0001, 4515439.0 ], [ -13337174.0, 4515483.0 ], [ -13337200.0, 4515563.0 ], [ -13337234.0001, 4515570.0 ], [ -13337230.0, 4515599.000100001692772 ], [ -13337255.0, 4515609.0 ], [ -13337253.0, 4515662.999899998307228 ], [ -13337274.9999, 4515683.0 ], [ -13337305.0, 4515677.999899998307228 ], [ -13337298.0, 4515700.000100001692772 ], [ -13337270.0, 4515705.0 ], [ -13337264.0001, 4515742.0 ], [ -13337273.0, 4515776.0 ], [ -13337306.0, 4515798.000100001692772 ], [ -13337295.0, 4515837.0 ], [ -13337308.0, 4515852.0 ], [ -13337369.0, 4515855.0 ], [ -13337386.0, 4515823.0 ], [ -13337385.9999, 4515772.0 ], [ -13337428.0, 4515752.0 ], [ -13337421.0, 4515729.0 ], [ -13337514.0001, 4515717.0 ], [ -13337539.0, 4515793.0 ], [ -13337564.0, 4515804.0 ], [ -13337564.9999, 4515822.0 ], [ -13337612.0, 4515835.000100001692772 ], [ -13337570.0, 4515856.000100001692772 ], [ -13337557.0, 4515875.0 ], [ -13337569.0001, 4515899.0 ], [ -13337607.0, 4515919.0 ], [ -13337627.9999, 4515899.0 ], [ -13337648.0, 4515902.0 ], [ -13337649.0, 4515919.000100001692772 ], [ -13337614.0, 4515957.0 ], [ -13337627.0001, 4515980.0 ], [ -13337619.0, 4516021.0 ], [ -13337562.0, 4516003.0 ], [ -13337575.0, 4515967.0 ], [ -13337564.0, 4515947.0 ], [ -13337505.0, 4515977.0 ], [ -13337425.0, 4515944.0 ], [ -13337385.9999, 4515985.0 ], [ -13337329.0, 4515949.0 ], [ -13337304.9999, 4515960.0 ], [ -13337350.0, 4516040.0 ], [ -13337345.9999, 4516108.0 ], [ -13337320.0, 4516105.0 ], [ -13337327.0, 4516133.000100001692772 ], [ -13337310.0, 4516145.0 ], [ -13337307.0, 4516179.0 ], [ -13337312.0, 4516197.0 ], [ -13337345.0001, 4516194.0 ], [ -13337348.0, 4516211.999899998307228 ], [ -13337324.0, 4516219.000100001692772 ], [ -13337331.0001, 4516274.999899998307228 ], [ -13337379.0, 4516314.0 ], [ -13337341.9999, 4516351.0 ], [ -13337378.0001, 4516388.0 ], [ -13337422.9999, 4516378.0 ], [ -13337392.0, 4516424.0 ], [ -13337321.0, 4516429.0 ], [ -13337257.0, 4516454.999899998307228 ], [ -13337293.0, 4516495.999899998307228 ], [ -13337242.0, 4516573.0 ], [ -13337220.0, 4516660.0 ], [ -13337172.0, 4516704.0 ], [ -13337210.0, 4516743.0 ], [ -13337230.0, 4516808.0 ], [ -13337258.0001, 4516823.0 ], [ -13337314.0, 4516811.0 ], [ -13337381.0, 4516861.0 ], [ -13337423.0, 4516950.0 ], [ -13337459.0001, 4516969.0 ], [ -13337458.0, 4516992.0 ], [ -13337540.0, 4517096.0 ], [ -13337527.0, 4517115.0 ], [ -13337552.0, 4517127.0 ], [ -13337556.0, 4517160.000100001692772 ], [ -13337577.0, 4517163.0 ], [ -13337578.9999, 4517194.999899998307228 ], [ -13337557.0, 4517215.0 ], [ -13337542.0, 4517193.999899998307228 ], [ -13337446.0, 4517203.999899998307228 ], [ -13337412.0, 4517260.0 ], [ -13337420.0, 4517301.0 ], [ -13337545.0, 4517341.000100001692772 ], [ -13337542.0, 4517426.0 ], [ -13337505.0, 4517422.000100001692772 ], [ -13337467.0, 4517441.0 ], [ -13337441.0, 4517522.0 ], [ -13337483.0, 4517542.0 ], [ -13337517.0001, 4517613.0 ], [ -13337390.0, 4517679.0 ], [ -13337233.0, 4517680.0 ], [ -13337166.0001, 4517711.0 ], [ -13337132.0, 4517873.0 ], [ -13337263.0001, 4517974.0 ], [ -13337318.0, 4517969.0 ], [ -13337182.0, 4518058.000100001692772 ], [ -13337066.0, 4518180.0 ], [ -13336996.0001, 4518313.0 ], [ -13337009.0, 4518404.000100001692772 ], [ -13337074.9999, 4518444.0 ], [ -13337082.0001, 4518483.0 ], [ -13337107.9999, 4518506.000100001692772 ], [ -13337182.0, 4518549.0 ], [ -13337234.0, 4518751.999899998307228 ], [ -13337232.0, 4518786.0 ], [ -13337196.0, 4518845.999899998307228 ], [ -13337206.0, 4518922.0 ], [ -13337193.0, 4518959.0 ], [ -13337219.0, 4518989.0 ], [ -13337224.0, 4519045.000100001692772 ] ], [ [ -13345360.0, 4521859.0 ], [ -13345325.0, 4521841.999899998307228 ], [ -13345292.0, 4521782.0 ], [ -13345252.0, 4521783.0 ], [ -13345236.0, 4521761.0 ], [ -13345349.0001, 4521730.0 ], [ -13345341.0, 4521691.0 ], [ -13345320.9999, 4521693.0 ], [ -13345342.0, 4521665.0 ], [ -13345381.0, 4521688.000100001692772 ], [ -13345357.0, 4521823.0 ], [ -13345380.0, 4521842.0 ], [ -13345360.0, 4521859.0 ] ], [ [ -13343031.0, 4517894.0 ], [ -13343001.0, 4517954.0 ], [ -13343011.0, 4518006.0 ], [ -13343032.9999, 4518028.0 ], [ -13343019.9999, 4518137.000100001692772 ], [ -13343051.0001, 4518371.0 ], [ -13343032.0001, 4518388.0 ], [ -13343027.0, 4518361.0 ], [ -13342944.0, 4518259.0 ], [ -13342918.0, 4518264.0 ], [ -13342921.9999, 4518249.0 ], [ -13342885.0001, 4518206.999899998307228 ], [ -13342810.0, 4518174.999899998307228 ], [ -13342764.0001, 4518233.0 ], [ -13342750.0, 4518230.0 ], [ -13342750.0, 4518204.0 ], [ -13342699.0, 4518121.999899998307228 ], [ -13342713.9999, 4518088.000100001692772 ], [ -13342683.0, 4518035.0 ], [ -13342601.0, 4517996.0 ], [ -13342525.0, 4517982.0 ], [ -13342488.0, 4518005.0 ], [ -13342447.0, 4517983.0 ], [ -13342479.0, 4517911.999899998307228 ], [ -13342509.0, 4517905.0 ], [ -13342584.0, 4517831.0 ], [ -13342598.0, 4517734.0 ], [ -13342525.0, 4517713.0 ], [ -13342480.0, 4517639.0 ], [ -13342403.0, 4517613.0 ], [ -13342391.0001, 4517627.999899998307228 ], [ -13342363.0, 4517597.0 ], [ -13342371.0, 4517579.0 ], [ -13342350.0, 4517588.0 ], [ -13342335.0, 4517573.000100001692772 ], [ -13342340.0, 4517542.0 ], [ -13342398.0, 4517499.0 ], [ -13342458.0, 4517549.0 ], [ -13342581.0, 4517553.0 ], [ -13342665.0, 4517736.0 ], [ -13342685.0, 4517736.0 ], [ -13342714.9999, 4517675.0 ], [ -13342768.0, 4517663.0 ], [ -13342792.0, 4517560.0 ], [ -13342839.0, 4517523.0 ], [ -13342875.0, 4517465.0 ], [ -13342934.0, 4517512.0 ], [ -13342935.0, 4517576.0 ], [ -13342975.0001, 4517639.0 ], [ -13343002.0, 4517666.0 ], [ -13343047.0, 4517665.0 ], [ -13343037.0, 4517701.0 ], [ -13343063.0, 4517746.0 ], [ -13343063.0, 4517818.0 ], [ -13343053.0, 4517880.0 ], [ -13343031.0, 4517894.0 ] ], [ [ -13343560.0, 4515182.0 ], [ -13343488.0, 4515122.0 ], [ -13343461.0, 4515119.0 ], [ -13343463.9999, 4515080.0 ], [ -13343418.0, 4514988.0 ], [ -13343360.9999, 4514957.0 ], [ -13343268.0, 4514941.0 ], [ -13343235.9999, 4514905.0 ], [ -13343240.0, 4514866.999899998307228 ], [ -13343175.0, 4514878.0 ], [ -13343163.0, 4514907.0 ], [ -13343182.0001, 4514998.999899998307228 ], [ -13343172.0, 4515030.0 ], [ -13343154.0, 4515042.0 ], [ -13343066.9999, 4514995.999899998307228 ], [ -13343089.0001, 4514985.0 ], [ -13343073.0, 4514950.0 ], [ -13343072.0, 4514905.000100001692772 ], [ -13343091.0, 4514897.0 ], [ -13343082.0, 4514837.0 ], [ -13343014.0, 4514756.000100001692772 ], [ -13342941.0, 4514544.000100001692772 ], [ -13342873.0001, 4514477.0 ], [ -13342877.0001, 4514443.000100001692772 ], [ -13342834.0, 4514424.000100001692772 ], [ -13342857.0, 4514403.000100001692772 ], [ -13342844.0, 4514375.0 ], [ -13342876.0001, 4514351.0 ], [ -13342863.9999, 4514301.0 ], [ -13342890.0, 4514308.0 ], [ -13343020.0001, 4514272.0 ], [ -13343064.0, 4514286.0 ], [ -13343078.0, 4514318.0 ], [ -13343145.0, 4514357.0 ], [ -13343244.0, 4514458.0 ], [ -13343274.0, 4514523.0 ], [ -13343289.0, 4514623.0 ], [ -13343322.0, 4514662.0 ], [ -13343374.0, 4514668.0 ], [ -13343433.0, 4514611.0 ], [ -13343485.0, 4514612.0 ], [ -13343530.0, 4514645.0 ], [ -13343548.9999, 4514719.0 ], [ -13343519.0001, 4514846.000100001692772 ], [ -13343589.0, 4514947.0 ], [ -13343642.0, 4515104.0 ], [ -13343616.0, 4515139.0 ], [ -13343616.0, 4515171.0 ], [ -13343555.0, 4515153.0 ], [ -13343560.0, 4515182.0 ] ], [ [ -13338100.0, 4517744.0 ], [ -13338077.0, 4517696.0 ], [ -13338162.0001, 4517697.0 ], [ -13338193.0, 4517730.0 ], [ -13338158.0001, 4517798.0 ], [ -13338141.0001, 4517991.999899998307228 ], [ -13338144.0, 4518050.0 ], [ -13338175.0, 4518069.0 ], [ -13338158.0, 4518122.0 ], [ -13338135.0, 4518123.0 ], [ -13338131.0, 4518219.0 ], [ -13338112.0, 4518253.000100001692772 ], [ -13338270.0, 4518303.0 ], [ -13338322.0, 4518232.0 ], [ -13338356.0001, 4518232.000100001692772 ], [ -13338416.0001, 4518293.0 ], [ -13338401.0001, 4518310.0 ], [ -13338424.0, 4518333.0 ], [ -13338502.0, 4518347.0 ], [ -13338554.0, 4518310.0 ], [ -13338558.0, 4518291.000100001692772 ], [ -13338640.0, 4518279.999899998307228 ], [ -13338624.0001, 4518205.0 ], [ -13338637.0001, 4518145.0 ], [ -13338611.0, 4518082.0 ], [ -13338564.0, 4518055.000100001692772 ], [ -13338569.0, 4517996.000100001692772 ], [ -13338582.0, 4518022.0 ], [ -13338600.0001, 4518013.0 ], [ -13338643.0, 4518038.0 ], [ -13338687.9999, 4518125.0 ], [ -13338732.9999, 4518133.0 ], [ -13338758.0001, 4518089.999899998307228 ], [ -13338746.0, 4518062.999899998307228 ], [ -13338791.0001, 4518021.0 ], [ -13338804.0001, 4518091.0 ], [ -13338762.0001, 4518117.0 ], [ -13338742.0, 4518226.0 ], [ -13338765.0, 4518244.0 ], [ -13338772.9999, 4518304.0 ], [ -13338811.0, 4518312.0 ], [ -13338810.0, 4518327.0 ], [ -13338765.0, 4518334.0 ], [ -13338751.0, 4518360.0 ], [ -13338783.0, 4518370.0 ], [ -13338798.0, 4518418.000100001692772 ], [ -13338863.0, 4518401.0 ], [ -13338883.0, 4518413.0 ], [ -13338865.0, 4518436.0 ], [ -13338870.0, 4518468.0 ], [ -13338910.9999, 4518460.0 ], [ -13338944.0, 4518491.0 ], [ -13338963.0, 4518487.0 ], [ -13338985.0, 4518521.000100001692772 ], [ -13339040.0, 4518427.0 ], [ -13339072.0, 4518408.000100001692772 ], [ -13339099.0, 4518412.0 ], [ -13339112.0, 4518340.0 ], [ -13339152.0, 4518359.0 ], [ -13339139.0, 4518399.0 ], [ -13339151.0, 4518407.0 ], [ -13339256.0, 4518406.0 ], [ -13339296.9999, 4518371.0 ], [ -13339337.0001, 4518380.999899998307228 ], [ -13339348.0001, 4518350.0 ], [ -13339374.0, 4518351.0 ], [ -13339404.0, 4518398.999899998307228 ], [ -13339430.0, 4518399.999899998307228 ], [ -13339474.0, 4518389.0 ], [ -13339505.0, 4518356.000100001692772 ], [ -13339554.0, 4518243.0 ], [ -13339618.0, 4518238.0 ], [ -13339650.0, 4518263.0 ], [ -13339675.0, 4518228.0 ], [ -13339739.0, 4518209.0 ], [ -13339792.0, 4518223.0 ], [ -13339850.0, 4518162.999899998307228 ], [ -13339846.0, 4518108.0 ], [ -13339874.0, 4518089.0 ], [ -13339866.0001, 4518054.0 ], [ -13339902.0, 4518049.0 ], [ -13339918.0, 4518013.0 ], [ -13339934.9999, 4518024.0 ], [ -13339984.0, 4518010.0 ], [ -13339957.0, 4517983.0 ], [ -13340003.0, 4517934.0 ], [ -13339979.9999, 4517897.0 ], [ -13339982.0001, 4517871.000100001692772 ], [ -13340040.0, 4517853.0 ], [ -13340062.0, 4517882.999899998307228 ], [ -13340085.0, 4517884.0 ], [ -13340105.0, 4517851.0 ], [ -13340120.0, 4517852.000100001692772 ], [ -13340143.0, 4517874.0 ], [ -13340128.0, 4517889.0 ], [ -13340175.0001, 4517915.0 ], [ -13340114.0, 4517922.0 ], [ -13340094.9999, 4517980.0 ], [ -13340061.0, 4517987.0 ], [ -13340058.0, 4518033.0 ], [ -13340016.0, 4518103.0 ], [ -13339984.0, 4518101.0 ], [ -13339951.0, 4518151.0 ], [ -13339894.0, 4518148.0 ], [ -13339884.0, 4518164.000100001692772 ], [ -13339910.0, 4518182.0 ], [ -13339912.0, 4518235.0 ], [ -13339879.0, 4518208.000100001692772 ], [ -13339839.0, 4518231.999899998307228 ], [ -13339799.0, 4518299.0 ], [ -13339686.0, 4518351.0 ], [ -13339635.0, 4518354.0 ], [ -13339595.0, 4518427.0 ], [ -13339520.0, 4518491.0 ], [ -13339387.0, 4518489.0 ], [ -13339379.0001, 4518519.0 ], [ -13339342.0, 4518470.0 ], [ -13339304.0, 4518512.0 ], [ -13339267.9999, 4518506.0 ], [ -13339184.0, 4518545.0 ], [ -13339113.0, 4518624.999899998307228 ], [ -13339100.0, 4518607.0 ], [ -13338964.0, 4518638.0 ], [ -13338953.0, 4518633.0 ], [ -13338965.0, 4518615.999899998307228 ], [ -13338945.0001, 4518611.999899998307228 ], [ -13338897.9999, 4518634.0 ], [ -13338838.9999, 4518578.0 ], [ -13338772.0, 4518561.0 ], [ -13338763.0, 4518537.0 ], [ -13338730.0001, 4518581.0 ], [ -13338652.9999, 4518599.0 ], [ -13338606.0001, 4518636.999899998307228 ], [ -13338593.0, 4518669.0 ], [ -13338533.0, 4518670.0 ], [ -13338486.0, 4518721.0 ], [ -13338412.0001, 4518678.0 ], [ -13338406.0001, 4518703.0 ], [ -13338324.0, 4518768.0 ], [ -13338275.0, 4518888.0 ], [ -13338292.0, 4518927.000100001692772 ], [ -13338255.0001, 4518915.0 ], [ -13338256.0, 4518938.0 ], [ -13338331.0, 4519028.0 ], [ -13338321.0, 4519076.0 ], [ -13338300.0, 4519095.000100001692772 ], [ -13338296.0001, 4519220.0 ], [ -13338263.0, 4519185.000100001692772 ], [ -13338183.0, 4519197.0 ], [ -13338165.0, 4519251.0 ], [ -13338121.0001, 4519250.0 ], [ -13338082.0001, 4519297.000100001692772 ], [ -13338109.0, 4519348.000100001692772 ], [ -13338061.0, 4519372.0 ], [ -13338039.0, 4519364.0 ], [ -13338007.0, 4519393.000100001692772 ], [ -13337976.0, 4519363.0 ], [ -13337937.0, 4519452.0 ], [ -13337962.9999, 4519536.0 ], [ -13338038.0, 4519600.0 ], [ -13338001.0, 4519647.0 ], [ -13338028.0, 4519599.0 ], [ -13337957.0, 4519541.000100001692772 ], [ -13337927.0001, 4519443.0 ], [ -13337944.0, 4519357.0 ], [ -13337896.0, 4519336.000100001692772 ], [ -13337932.0, 4519324.0 ], [ -13337922.0, 4519298.0 ], [ -13337863.0, 4519219.0 ], [ -13337813.0, 4519188.0 ], [ -13337768.0001, 4519116.0 ], [ -13337820.0, 4519136.0 ], [ -13337880.0, 4519073.0 ], [ -13337885.0, 4518986.0 ], [ -13337848.0001, 4518884.0 ], [ -13337871.0, 4518881.999899998307228 ], [ -13337876.0, 4518862.0 ], [ -13337900.0, 4518875.000100001692772 ], [ -13337935.0, 4518950.0 ], [ -13337965.0, 4518935.000100001692772 ], [ -13337965.0, 4518905.0 ], [ -13337985.0, 4518893.0 ], [ -13338050.0, 4518929.0 ], [ -13338074.0, 4519010.0 ], [ -13338109.0, 4519018.999899998307228 ], [ -13338122.0001, 4519052.0 ], [ -13338254.0, 4519068.0 ], [ -13338284.0, 4519028.0 ], [ -13338270.0, 4518994.0 ], [ -13338235.0, 4518982.0 ], [ -13338251.0, 4518954.0 ], [ -13338224.0, 4518901.0 ], [ -13338221.0, 4518814.0 ], [ -13338278.0, 4518494.000100001692772 ], [ -13338266.0, 4518486.0 ], [ -13338222.0, 4518525.0 ], [ -13338219.0, 4518507.0 ], [ -13338163.0, 4518490.999899998307228 ], [ -13338199.9999, 4518466.0 ], [ -13338130.0, 4518362.0 ], [ -13338090.0, 4518222.0 ], [ -13338085.0, 4518194.0 ], [ -13338123.0, 4518188.0 ], [ -13338131.0, 4518163.0 ], [ -13338113.0, 4518111.0 ], [ -13338100.0, 4517744.0 ] ] ] ] } }
]
}
